{
  "type": "FeatureCollection",
  "features": [
    {
      "type": "Feature",
      "properties": {
        "iso3_code": "PER",
        "map_code": "PER",
        "gaul0_code": 207,
        "gaul0_name": "Peru",
        "gaul1_code": 2215,
        "gaul1_name": "Loreto",
        "gaul2_code": 119192,
        "gaul2_name": "Maynas",
        "continent": "America",
        "disp_en": "Maynas, Loreto, Peru",
        "simplified_for": "USGS EarthExplorer",
        "source_boundary": "maynas_gaul2024.geojson",
        "simplification_tolerance_degrees": 0.003321506250000001,
        "original_point_count": 2758,
        "simplified_point_count": 386
      },
      "geometry": {
        "type": "Polygon",
        "coordinates": [
          [
            [
              -75.24473292318584,
              -0.639366964213934
            ],
            [
              -75.23153078921445,
              -0.647092198146311
            ],
            [
              -75.23895887365302,
              -0.659559252357553
            ],
            [
              -75.23082880540488,
              -0.670515368189626
            ],
            [
              -75.23079331995564,
              -0.688547562120164
            ],
            [
              -75.20930941020106,
              -0.704920470902891
            ],
            [
              -75.18157159425363,
              -0.712026024281556
            ],
            [
              -75.18610565495192,
              -0.71833740974364
            ],
            [
              -75.19930977192837,
              -0.721619172586713
            ],
            [
              -75.19279988720496,
              -0.736633927014054
            ],
            [
              -75.13508448476114,
              -0.752569469405387
            ],
            [
              -75.12750611011882,
              -0.762926718593121
            ],
            [
              -75.09968626970556,
              -0.779670616605642
            ],
            [
              -75.05840419879468,
              -0.781233659006034
            ],
            [
              -75.04763123529324,
              -0.79634334496933
            ],
            [
              -75.02663098543161,
              -0.797049719269012
            ],
            [
              -74.98702160856027,
              -0.818980468873519
            ],
            [
              -74.95408825177134,
              -0.887981380036535
            ],
            [
              -74.92675285905716,
              -0.898325410089569
            ],
            [
              -74.90978085610158,
              -0.91979161219308
            ],
            [
              -74.88734576579435,
              -0.919629712641097
            ],
            [
              -74.88268772635746,
              -0.965088691090102
            ],
            [
              -74.85504844013337,
              -1.001664793195573
            ],
            [
              -74.84860994988918,
              -1.020510087570358
            ],
            [
              -74.7946383226004,
              -1.036138463818986
            ],
            [
              -74.784423858774,
              -1.04995121857371
            ],
            [
              -74.75951185568755,
              -1.056310590061514
            ],
            [
              -74.73905983794106,
              -1.100275941181678
            ],
            [
              -74.72003658841777,
              -1.112712711622294
            ],
            [
              -74.71059201081255,
              -1.152246879090171
            ],
            [
              -74.69789573380103,
              -1.159821470284555
            ],
            [
              -74.68736598385306,
              -1.179324470347979
            ],
            [
              -74.64809534832165,
              -1.21470599128844
            ],
            [
              -74.64121512188035,
              -1.23272789517614
            ],
            [
              -74.61657810899243,
              -1.242962969665257
            ],
            [
              -74.60289048410851,
              -1.255255969986933
            ],
            [
              -74.5870620959389,
              -1.27781731881413
            ],
            [
              -74.58844950074382,
              -1.307526743664255
            ],
            [
              -74.57207423393862,
              -1.319322220144272
            ],
            [
              -74.54889749432385,
              -1.326995698092958
            ],
            [
              -74.54337310918163,
              -1.344853470311364
            ],
            [
              -74.51999779206437,
              -1.351183663295387
            ],
            [
              -74.49418160879407,
              -1.378443344784444
            ],
            [
              -74.46310503367033,
              -1.376831774966377
            ],
            [
              -74.44356448421348,
              -1.397919970430223
            ],
            [
              -74.40405582601551,
              -1.394489437237667
            ],
            [
              -74.32286129591205,
              -1.421999973819709
            ],
            [
              -74.30421408261378,
              -1.43805756140722
            ],
            [
              -74.28458398406354,
              -1.434001969714984
            ],
            [
              -74.22831816195355,
              -1.454132483427315
            ],
            [
              -74.20676360865355,
              -1.445552719982004
            ],
            [
              -74.19615235944366,
              -1.447962844609492
            ],
            [
              -74.17470285865,
              -1.466412719671212
            ],
            [
              -74.15077498277918,
              -1.473208470094733
            ],
            [
              -74.11333372207349,
              -1.507169330200327
            ],
            [
              -74.08770320294036,
              -1.520669477014678
            ],
            [
              -74.03235896199647,
              -1.527749435687838
            ],
            [
              -74.00572781128943,
              -1.524335598409039
            ],
            [
              -73.99910748442278,
              -1.530648469551124
            ],
            [
              -73.99567385756245,
              -1.553179719868069
            ],
            [
              -73.97565234527934,
              -1.583286547935813
            ],
            [
              -73.9405829853165,
              -1.591167137053617
            ],
            [
              -73.94140623371067,
              -1.603322220044333
            ],
            [
              -73.92454657496432,
              -1.614936950779565
            ],
            [
              -73.88747560831263,
              -1.682771345021479
            ],
            [
              -73.85131708031889,
              -1.680958934107423
            ],
            [
              -73.82449075784217,
              -1.69635123292295
            ],
            [
              -73.81780473280213,
              -1.7448475951403
            ],
            [
              -73.82328110763683,
              -1.776638346182608
            ],
            [
              -73.84244535826662,
              -1.824536721292532
            ],
            [
              -73.83777227227245,
              -1.851189130174134
            ],
            [
              -73.87863389933494,
              -1.892656763598609
            ],
            [
              -73.88094698441574,
              -1.932269344754388
            ],
            [
              -73.89963239461923,
              -1.969209510410451
            ],
            [
              -73.91988495082978,
              -1.977619829891182
            ],
            [
              -73.92268780759622,
              -1.984090752386294
            ],
            [
              -73.91186675284831,
              -1.993100013154901
            ],
            [
              -73.89043796523987,
              -1.996087500737531
            ],
            [
              -73.86422978727478,
              -2.019365690174368
            ],
            [
              -73.81786782294165,
              -2.022846089875088
            ],
            [
              -73.80743990682618,
              -2.028527966092724
            ],
            [
              -73.78739742595042,
              -2.122356653436725
            ],
            [
              -73.78060791772117,
              -2.13154700978663
            ],
            [
              -73.75359373316422,
              -2.142191345054414
            ],
            [
              -73.73696520018382,
              -2.15691360487881
            ],
            [
              -73.756575223168,
              -2.21307264508647
            ],
            [
              -73.75120488199968,
              -2.226360004210733
            ],
            [
              -73.73151373297236,
              -2.238384720578267
            ],
            [
              -73.72277448825201,
              -2.276508561321009
            ],
            [
              -73.71294016605572,
              -2.294838323829538
            ],
            [
              -73.6941961083636,
              -2.302238095811447
            ],
            [
              -73.66696873322041,
              -2.289591846286612
            ],
            [
              -73.63374698273702,
              -2.29998384617744
            ],
            [
              -73.57572356788825,
              -2.340989576107972
            ],
            [
              -73.56120998315413,
              -2.367668470923093
            ],
            [
              -73.51667716971559,
              -2.37860615155256
            ],
            [
              -73.47947721959787,
              -2.41145680758558
            ],
            [
              -73.4441634751642,
              -2.41701421403468
            ],
            [
              -73.40577148266772,
              -2.439927721187303
            ],
            [
              -73.37318297001798,
              -2.465598711611108
            ],
            [
              -73.36910425855467,
              -2.474600118600563
            ],
            [
              -73.37074786402263,
              -2.495859505411715
            ],
            [
              -73.38850138413153,
              -2.515597270797286
            ],
            [
              -73.39591420167903,
              -2.535414244871447
            ],
            [
              -73.38861510610218,
              -2.559215499795414
            ],
            [
              -73.36023327484571,
              -2.604588539029805
            ],
            [
              -73.32852368941656,
              -2.623062878349117
            ],
            [
              -73.27146848108544,
              -2.639527641187669
            ],
            [
              -73.24200542730853,
              -2.672404525048762
            ],
            [
              -73.2088024987363,
              -2.698532361179502
            ],
            [
              -73.18958641657969,
              -2.703925136835494
            ],
            [
              -73.16410203098383,
              -2.701698580025379
            ],
            [
              -73.14479885218526,
              -2.708899734035469
            ],
            [
              -73.13800892577126,
              -2.718100866961322
            ],
            [
              -73.13474813601755,
              -2.756355301855649
            ],
            [
              -73.12682801360188,
              -2.771953627257972
            ],
            [
              -73.11285607075104,
              -2.778223881326994
            ],
            [
              -73.07750288295165,
              -2.77687435596664
            ],
            [
              -73.06517896213933,
              -2.780937607184796
            ],
            [
              -73.01665842974256,
              -2.820366132191168
            ],
            [
              -72.93539467792203,
              -2.872949530896051
            ],
            [
              -72.89123012067347,
              -2.916377911211612
            ],
            [
              -72.80938673241172,
              -2.912011720664339
            ],
            [
              -72.76620310708768,
              -2.915271471701033
            ],
            [
              -72.65390066408435,
              -2.889171436312608
            ],
            [
              -72.57077348191063,
              -2.890898470987622
            ],
            [
              -72.57339060709074,
              -2.947851596374051
            ],
            [
              -72.55416010700321,
              -3.008414096833008
            ],
            [
              -72.55807423174036,
              -3.049216846180457
            ],
            [
              -72.55277010675496,
              -3.067543470954377
            ],
            [
              -72.50060910702456,
              -3.084465596609959
            ],
            [
              -72.48393360695036,
              -3.096172595988492
            ],
            [
              -72.47112773225894,
              -3.127587095867682
            ],
            [
              -72.45312998236273,
              -3.134325472242722
            ],
            [
              -72.43040435707536,
              -3.174263722192904
            ],
            [
              -72.4171479822935,
              -3.181737847423562
            ],
            [
              -72.40981385722364,
              -3.196210096618586
            ],
            [
              -72.41309410740712,
              -3.219061097291785
            ],
            [
              -72.40656760680957,
              -3.232628347020523
            ],
            [
              -72.36257760707088,
              -3.247912471782968
            ],
            [
              -72.34913860696105,
              -3.274765595855513
            ],
            [
              -72.33777435720071,
              -3.282446595733745
            ],
            [
              -72.29343948184658,
              -3.292935597399833
            ],
            [
              -72.27396285710006,
              -3.332783221768238
            ],
            [
              -72.21813085715331,
              -3.379290971600938
            ],
            [
              -72.19845123203856,
              -3.404255846729882
            ],
            [
              -72.19800585628519,
              -3.441046847234134
            ],
            [
              -72.19175098242181,
              -3.450104721755451
            ],
            [
              -72.11844298235764,
              -3.497667721687947
            ],
            [
              -72.14802223214025,
              -3.52852034673657
            ],
            [
              -72.15491660671591,
              -3.544834472233049
            ],
            [
              -72.15519498196284,
              -3.577148097206816
            ],
            [
              -72.17427348223526,
              -3.604281221600957
            ],
            [
              -72.22141760673708,
              -3.627825846885287
            ],
            [
              -72.27620798221255,
              -3.674645971734094
            ],
            [
              -72.30361935684778,
              -3.687380846748624
            ],
            [
              -72.28979535697005,
              -3.730422597724669
            ],
            [
              -72.28214410666516,
              -3.738235097371785
            ],
            [
              -72.2788897308763,
              -3.778873723143704
            ],
            [
              -72.28288723176024,
              -3.834838597023577
            ],
            [
              -72.26549610695969,
              -3.901931722371046
            ],
            [
              -72.25494973214438,
              -3.919689722002886
            ],
            [
              -72.25380760663563,
              -3.943274972362019
            ],
            [
              -72.30601110742651,
              -3.994261597794434
            ],
            [
              -72.32619910670331,
              -3.995247722404429
            ],
            [
              -72.3481641069879,
              -4.006003846999874
            ],
            [
              -72.35518823215108,
              -4.022136598125428
            ],
            [
              -72.37980535743128,
              -4.038884222029196
            ],
            [
              -72.39559485711686,
              -4.057240347264155
            ],
            [
              -72.40846485706743,
              -4.100034722624287
            ],
            [
              -72.42576835732382,
              -4.119051346842127
            ],
            [
              -72.43663198238005,
              -4.166772722782866
            ],
            [
              -72.4290253573343,
              -4.179810597381049
            ],
            [
              -72.38868098164193,
              -4.203318971892998
            ],
            [
              -72.38775660718164,
              -4.208531348043209
            ],
            [
              -72.48176560679724,
              -4.293296846772023
            ],
            [
              -72.49799210685023,
              -4.319388597605666
            ],
            [
              -72.53978648196056,
              -4.293883471844708
            ],
            [
              -72.56188860727337,
              -4.294832472440589
            ],
            [
              -72.58077735688943,
              -4.30352734820849
            ],
            [
              -72.62856060708629,
              -4.303654346870587
            ],
            [
              -72.60293910725397,
              -4.355233222635093
            ],
            [
              -72.63269723219145,
              -4.397788847777065
            ],
            [
              -72.67219398156698,
              -4.398593598016078
            ],
            [
              -72.75656248177307,
              -4.382718722990603
            ],
            [
              -72.75778323231026,
              -4.414363222684528
            ],
            [
              -72.76573635714709,
              -4.446085973288973
            ],
            [
              -72.78338085784026,
              -4.488455097924373
            ],
            [
              -72.795773107343,
              -4.496193097733169
            ],
            [
              -72.82258598315656,
              -4.498095723238862
            ],
            [
              -72.8599551074422,
              -4.486046846584657
            ],
            [
              -72.88201748182126,
              -4.487002098368123
            ],
            [
              -72.90572848168398,
              -4.46811322284691
            ],
            [
              -72.93467773299096,
              -4.467095722689351
            ],
            [
              -72.95598373256314,
              -4.475519347639647
            ],
            [
              -72.97759960793553,
              -4.493263723442055
            ],
            [
              -73.00676573165316,
              -4.507851596673731
            ],
            [
              -73.02582948214484,
              -4.529581597812466
            ],
            [
              -73.03500198155615,
              -4.55406247310458
            ],
            [
              -73.0352427318665,
              -4.632538723183472
            ],
            [
              -73.06040235788242,
              -4.667361347847816
            ],
            [
              -73.15560348261454,
              -4.70970897329039
            ],
            [
              -73.18381423224099,
              -4.684667598230988
            ],
            [
              -73.21716398323122,
              -4.673956973035786
            ],
            [
              -73.26966010812737,
              -4.638835973101607
            ],
            [
              -73.2894032316737,
              -4.608671973332832
            ],
            [
              -73.32256473297599,
              -4.584317972596295
            ],
            [
              -73.3621601083023,
              -4.522939473178099
            ],
            [
              -73.38873323295229,
              -4.497015222874211
            ],
            [
              -73.39747298309152,
              -4.476108597833502
            ],
            [
              -73.42374410730463,
              -4.461839847231033
            ],
            [
              -73.43450235789749,
              -4.447919473304864
            ],
            [
              -73.42066560833109,
              -4.425323472700029
            ],
            [
              -73.42023310817132,
              -4.379871472990033
            ],
            [
              -73.42360535810076,
              -4.362382723183998
            ],
            [
              -73.4499247327401,
              -4.319907973174395
            ],
            [
              -73.42517398259321,
              -4.28961947216078
            ],
            [
              -73.37865323306016,
              -4.25718684799449
            ],
            [
              -73.37886398288646,
              -4.252341847598132
            ],
            [
              -73.40029298273492,
              -4.238546848158478
            ],
            [
              -73.43747073308776,
              -4.268917972586337
            ],
            [
              -73.46821285843663,
              -4.284902348164735
            ],
            [
              -73.47220698326561,
              -4.30678909843806
            ],
            [
              -73.48344135833185,
              -4.321476597666788
            ],
            [
              -73.54458985793548,
              -4.337902347914962
            ],
            [
              -73.56327848321541,
              -4.360207472696686
            ],
            [
              -73.5926767327449,
              -4.381820597042861
            ],
            [
              -73.69192385789955,
              -4.43977534775405
            ],
            [
              -73.70925198429154,
              -4.445576223164096
            ],
            [
              -73.76530285764073,
              -4.449160097060769
            ],
            [
              -73.83358148279916,
              -4.438622222637377
            ],
            [
              -73.88351760925025,
              -4.388433597132689
            ],
            [
              -73.91485748338613,
              -4.384353472834448
            ],
            [
              -73.93700198295511,
              -4.371898472236637
            ],
            [
              -73.94525973334993,
              -4.324501971888424
            ],
            [
              -74.05870123427445,
              -4.24761322307171
            ],
            [
              -74.08560935818531,
              -4.211724596912575
            ],
            [
              -74.10170685858463,
              -4.17702534844102
            ],
            [
              -74.13543748415248,
              -4.061880847223279
            ],
            [
              -74.13534573441808,
              -3.99965034808497
            ],
            [
              -74.14628848362656,
              -3.993432098212622
            ],
            [
              -74.1524159838105,
              -3.966530846920989
            ],
            [
              -74.17456248437111,
              -3.918210972158533
            ],
            [
              -74.18856448436338,
              -3.900076347245601
            ],
            [
              -74.18654185871969,
              -3.891266221558851
            ],
            [
              -74.21387660841873,
              -3.857996471559886
            ],
            [
              -74.23832398396468,
              -3.846802471556771
            ],
            [
              -74.2584256087548,
              -3.847830472198439
            ],
            [
              -74.27548323436366,
              -3.834385971835104
            ],
            [
              -74.30281835907999,
              -3.79890034717323
            ],
            [
              -74.31410898404232,
              -3.774323596956322
            ],
            [
              -74.34677423314429,
              -3.7603323483591
            ],
            [
              -74.37069485778136,
              -3.715995847030683
            ],
            [
              -74.42294773405058,
              -3.716167221839783
            ],
            [
              -74.43054298267248,
              -3.707429846809816
            ],
            [
              -74.45624110923978,
              -3.705659472006971
            ],
            [
              -74.46783398375129,
              -3.695779972367802
            ],
            [
              -74.47205985937495,
              -3.684301471835397
            ],
            [
              -74.49238998391058,
              -3.701205096637864
            ],
            [
              -74.5040136089408,
              -3.696505846667378
            ],
            [
              -74.55454298397143,
              -3.633314472285008
            ],
            [
              -74.67923073371128,
              -3.509368721689043
            ],
            [
              -74.68619923400735,
              -3.494035097341737
            ],
            [
              -74.68194923406986,
              -3.463151221751389
            ],
            [
              -74.69193648418133,
              -3.451029097115054
            ],
            [
              -74.7174857342792,
              -3.458814596416403
            ],
            [
              -74.72045898379503,
              -3.452136721932106
            ],
            [
              -74.7125662340444,
              -3.436074222247441
            ],
            [
              -74.72332810890498,
              -3.414330097256141
            ],
            [
              -74.73160573521648,
              -3.370932846973176
            ],
            [
              -74.75009048418843,
              -3.355663221980024
            ],
            [
              -74.75329823462579,
              -3.335294220651633
            ],
            [
              -74.78077185943374,
              -3.320998597407254
            ],
            [
              -74.79270123417456,
              -3.307234345788345
            ],
            [
              -74.81138960944287,
              -3.302937596392894
            ],
            [
              -74.82963935926892,
              -3.279809097311954
            ],
            [
              -74.82861323371372,
              -3.25904684673452
            ],
            [
              -74.81337123409514,
              -3.243214846887554
            ],
            [
              -74.81991810883363,
              -3.234166346899258
            ],
            [
              -74.8442351087632,
              -3.222146596588118
            ],
            [
              -74.85514848521439,
              -3.223431597390231
            ],
            [
              -74.87418910963959,
              -3.200778220938105
            ],
            [
              -74.89755160871971,
              -3.209094721344229
            ],
            [
              -74.92019723391519,
              -3.197925720695423
            ],
            [
              -74.98698298357778,
              -3.19158547239158
            ],
            [
              -74.99332298456801,
              -3.184928847088599
            ],
            [
              -75.01677935937983,
              -3.134509720846893
            ],
            [
              -75.01061523520491,
              -3.110382845691731
            ],
            [
              -75.02045310972318,
              -3.09310747173231
            ],
            [
              -75.01376523387842,
              -3.076548595741031
            ],
            [
              -75.0262468598047,
              -3.059392345979916
            ],
            [
              -75.03276948432415,
              -3.037138845880918
            ],
            [
              -75.03639323416036,
              -2.998226470575048
            ],
            [
              -75.04459335869649,
              -2.985860722294433
            ],
            [
              -75.05668360866156,
              -2.980023471106222
            ],
            [
              -75.05913473517984,
              -2.962136721832223
            ],
            [
              -75.02614685968979,
              -2.830677720999972
            ],
            [
              -75.0220586091175,
              -2.790466721062273
            ],
            [
              -75.01026948364972,
              -2.766357470820537
            ],
            [
              -75.009926609925,
              -2.684673721215177
            ],
            [
              -75.00029585916656,
              -2.673601347324279
            ],
            [
              -74.97374810978738,
              -2.660699220892241
            ],
            [
              -74.95786261017128,
              -2.61474459638589
            ],
            [
              -74.96201660927898,
              -2.570373096141452
            ],
            [
              -74.97962110902694,
              -2.555357471170282
            ],
            [
              -74.99311173381938,
              -2.524194596203529
            ],
            [
              -74.98119523377301,
              -2.506801721322347
            ],
            [
              -74.95413273403841,
              -2.502289345976408
            ],
            [
              -74.9495918591769,
              -2.458790971426083
            ],
            [
              -74.95404685867544,
              -2.410179720817439
            ],
            [
              -74.96216598397285,
              -2.384667970650298
            ],
            [
              -74.95892373374329,
              -2.369904970637833
            ],
            [
              -74.96514848391536,
              -2.365650346386303
            ],
            [
              -74.98099736043974,
              -2.36784484596285
            ],
            [
              -75.0171503594014,
              -2.351790970776619
            ],
            [
              -75.08322848380743,
              -2.293470721196798
            ],
            [
              -75.10393873468479,
              -2.289681095905792
            ],
            [
              -75.11274348512364,
              -2.300918721122002
            ],
            [
              -75.13642023430634,
              -2.285901596081715
            ],
            [
              -75.15419360964734,
              -2.23871009619387
            ],
            [
              -75.1709148591334,
              -2.220832596446996
            ],
            [
              -75.1743656090855,
              -2.208701971418805
            ],
            [
              -75.1664198586895,
              -2.198287096372326
            ],
            [
              -75.16892973521902,
              -2.186687470650213
            ],
            [
              -75.19484973442758,
              -2.165482096221638
            ],
            [
              -75.22038435975031,
              -2.158507095625907
            ],
            [
              -75.24618660982401,
              -2.133828596112721
            ],
            [
              -75.24889923401241,
              -2.11622347133607
            ],
            [
              -75.24325235940881,
              -2.10037171967906
            ],
            [
              -75.26677048437034,
              -2.063659346001884
            ],
            [
              -75.26896911003632,
              -2.043712971176546
            ],
            [
              -75.28814923370015,
              -2.008710720423267
            ],
            [
              -75.29894673520363,
              -2.003269720421144
            ],
            [
              -75.33755473496302,
              -2.003201219960204
            ],
            [
              -75.3586659854468,
              -2.01215622013342
            ],
            [
              -75.39003123485355,
              -2.015148469626126
            ],
            [
              -75.41116411043532,
              -2.029134720690649
            ],
            [
              -75.43798048461156,
              -2.03659184513748
            ],
            [
              -75.44490036036325,
              -2.034136721132654
            ],
            [
              -75.46569923493166,
              -2.006845719853914
            ],
            [
              -75.5362891096546,
              -1.996460970297449
            ],
            [
              -75.57129523468728,
              -1.963769345878518
            ],
            [
              -75.61064448535461,
              -1.969357471370188
            ],
            [
              -75.65059573500508,
              -1.945880844725082
            ],
            [
              -75.70019923460694,
              -1.933820345232675
            ],
            [
              -75.74592386019793,
              -1.930923844759604
            ],
            [
              -75.77707810976693,
              -1.856474595126429
            ],
            [
              -75.78110073501085,
              -1.83605947116763
            ],
            [
              -75.77848027244659,
              -1.79379686403388
            ],
            [
              -75.5850420475524,
              -1.548589050444207
            ],
            [
              -75.56932899743526,
              -1.555124922876814
            ],
            [
              -75.56515195859589,
              -1.563115055715173
            ],
            [
              -75.55893895716707,
              -1.559633046228043
            ],
            [
              -75.38777496174504,
              -0.924731037807021
            ],
            [
              -75.37215193286539,
              -0.923410049733889
            ],
            [
              -75.36335696974834,
              -0.936697041934849
            ],
            [
              -75.3454280791425,
              -0.948298938445134
            ],
            [
              -75.33751103600548,
              -0.968596050667088
            ],
            [
              -75.31927603775881,
              -0.973137030749285
            ],
            [
              -75.3041669867169,
              -0.987204043631664
            ],
            [
              -75.2892730148377,
              -0.985191046129785
            ],
            [
              -75.27478204625442,
              -0.970297075149801
            ],
            [
              -75.2130429591652,
              -0.970670069867765
            ],
            [
              -75.20280597271739,
              -0.976658938659057
            ],
            [
              -75.18969198219918,
              -0.971973958231445
            ],
            [
              -75.20193308084697,
              -0.958166951943213
            ],
            [
              -75.23130494696562,
              -0.941075078352071
            ],
            [
              -75.23557200614312,
              -0.922510001035675
            ],
            [
              -75.2224219725959,
              -0.909581921068764
            ],
            [
              -75.22157506573666,
              -0.867775000415804
            ],
            [
              -75.2532269758442,
              -0.836687023687091
            ],
            [
              -75.24102996556041,
              -0.815217951846876
            ],
            [
              -75.24206295204351,
              -0.798717002087926
            ],
            [
              -75.26975206610484,
              -0.784437927268414
            ],
            [
              -75.2539330677568,
              -0.763549051247594
            ],
            [
              -75.26877892680591,
              -0.750872930741082
            ],
            [
              -75.27578804228426,
              -0.720699924261964
            ],
            [
              -75.27161703879517,
              -0.711436077113206
            ],
            [
              -75.2487170088828,
              -0.695469053953559
            ],
            [
              -75.26527093320692,
              -0.681916019808284
            ],
            [
              -75.27347497159263,
              -0.664346042335865
            ],
            [
              -75.25813407802525,
              -0.655914015019675
            ],
            [
              -75.25647898731535,
              -0.643501924674013
            ],
            [
              -75.24791502855561,
              -0.647456003591628
            ],
            [
              -75.24962108114795,
              -0.642579077262553
            ],
            [
              -75.24473292318584,
              -0.639366964213934
            ]
          ]
        ]
      }
    }
  ]
}